COSMOS 2426 (717)       
1 29671U 06062B   19251.81488712  .00000052  00000-0  10000-3 0  9997
2 29671  65.0813 277.4645 0021201 179.6247 101.3783  2.12961899 98879
COSMOS 2433 (720)       
1 32275U 07052A   19251.74672316 -.00000042  00000-0  10000-3 0  9998
2 32275  65.8866  38.3483 0002134 198.5729  26.1476  2.13104423 92388
COSMOS 2432 (719)       
1 32276U 07052B   19252.45675493 -.00000045  00000-0  10000-3 0  9990
2 32276  65.8999  38.4097 0008482 339.0108  21.3350  2.13103721 92404
COSMOS 2434 (721)       
1 32393U 07065A   19251.79478631  .00000053  00000-0  00000+0 0  9998
2 32393  64.6870 276.1202 0002546 156.8633 352.1555  2.13103041 91092
COSMOS 2436 (723)       
1 32395U 07065C   19251.79928978  .00000053  00000-0  10000-3 0  9999
2 32395  64.6947 276.1756 0014804 350.1623 215.0062  2.13104398 91020
COSMOS 2456 (730)       
1 36111U 09070A   19251.81546338 -.00000045  00000-0  00000-0 0  9994
2 36111  64.2044 155.7646 0004588 316.9675  21.1145  2.13103096 75753
COSMOS 2457 (733)       
1 36112U 09070B   19251.48595855 -.00000046  00000-0  00000-0 0  9997
2 36112  64.1850 155.6768 0005121 170.7938  39.1519  2.13101652 75754
COSMOS 2459 (731)       
1 36400U 10007A   19251.60717821 -.00000044  00000-0  10000-3 0  9994
2 36400  65.7894  37.3596 0024335 354.9482 338.0514  2.13102162 74103
COSMOS 2461 (735)       
1 36401U 10007B   19251.75246279 -.00000044  00000-0  10000-3 0  9995
2 36401  65.7835  37.3253 0008338  79.4288 275.5571  2.13102060 74102
COSMOS 2460 (732)       
1 36402U 10007C   19251.70743999 -.00000044  00000-0  10000-3 0  9992
2 36402  65.7730  37.2908 0002450 120.4766 239.6481  2.13101449 74112
COSMOS 2464 (736)       
1 37139U 10041C   19251.50328003  .00000051  00000-0  00000+0 0  9993
2 37139  64.2871 275.7120 0023517   6.8016 144.2576  2.13100740 70178
COSMOS 2474 (742)       
1 37829U 11055A   19252.09028661 -.00000044  00000-0  00000+0 0  9990
2 37829  64.5258 156.6615 0009128 247.6230 157.3246  2.13101927 61769
COSMOS 2476 (744)       
1 37867U 11064A   19251.76686133 -.00000045  00000-0  00000+0 0  9990
2 37867  64.5062 156.7225 0019260 240.4890 322.5118  2.13102028 61108
COSMOS 2477 (745)       
1 37868U 11064B   19251.56761365 -.00000046  00000-0  00000+0 0  9991
2 37868  64.5130 156.7830 0016908 241.8109 346.9738  2.13101926 61059
COSMOS 2475 (743)       
1 37869U 11064C   19252.47132888 -.00000042  00000-0  00000+0 0  9991
2 37869  64.5205 156.7509 0021028 264.4551 254.8054  2.13102297 61080
COSMOS 2485 (747)       
1 39155U 13019A   19251.83506058 -.00000045  00000-0  00000+0 0  9999
2 39155  64.6747 156.9283 0019668 235.4758  64.5423  2.13102082 49575
COSMOS 2492 (754)       
1 39620U 14012A   19251.95680663 -.00000046  00000-0  10000-3 0  9994
2 39620  65.6641  37.1022 0011666 331.3213  97.1824  2.13103318 42538
COSMOS 2500 (755)       
1 40001U 14032A   19252.35010485 -.00000048  00000-0  00000+0 0  9992
2 40001  65.6045  37.0260 0006868 185.7316  45.7407  2.13102626 40756
COSMOS 2501 (702K)      
1 40315U 14075A   19251.61362316  .00000049  00000-0  00000+0 0  9998
2 40315  64.0079 276.7586 0017847 210.6896 333.0497  2.13098691 37144
COSMOS 2514 (751)       
1 41330U 16008A   19251.83643956 -.00000046  00000-0  00000-0 0  9999
2 41330  65.4094  36.9869 0009914 202.2712 176.9846  2.13103078 27916
COSMOS 2516 (753)       
1 41554U 16032A   19251.76471163  .00000050  00000-0  00000+0 0  9998
2 41554  64.2298 276.7442 0015050 221.2157 353.5868  2.13101746 25511
COSMOS 2522 (752)       
1 42939U 17055A   19251.80724514  .00000051  00000-0  00000+0 0  9999
2 42939  64.4626 276.8396 0009974 244.4108 229.5240  2.13101967 15279
COSMOS 2527 (756)       
1 43508U 18053A   19252.09582133 -.00000044  00000-0  00000+0 0  9995
2 43508  64.8378 156.7083 0007558 236.0689 130.6365  2.13102706  9574
COSMOS 2529 (757)       
1 43687U 18086A   19252.08327483  .00000052  00000-0  00000+0 0  9991
2 43687  64.6737 276.8735 0012136 264.5218  16.8702  2.13102043  6581
COSMOS 2534 (758)       
1 44299U 19030A   19252.48690524  .00000053  00000-0  00000+0 0  9995
2 44299  64.7434 276.6507 0014849 281.7527  84.4886  2.13102001  2245
